STARLINK-31904          
1 59657U 24084D   26068.30571927 -.00002169  00000+0 -69333-4 0  9993
2 59657  43.0027  44.0346 0000389 294.2534  65.8277 15.27572673104319
YAOGAN-43 01G           
1 60464U 24148G   26068.44348481  .00010133  00000+0  35873-3 0  9993
2 60464  35.0006  62.0013 0007382 306.3543  53.6492 15.28332833 87004
